{
  "type": "FeatureCollection",
  "features": [
    {
      "type": "Feature",
      "properties": {
        "norad_id": 35839,
        "name": "COSMOS 2251 DEB",
        "group": "cosmos-2251-debris",
        "lat": -7.05391496294457,
        "lon": -71.71796472540113,
        "alt_km": 380.4319484152893,
        "timestamp": "2025-12-27T20:30:59.676720+00:00",
        "meta_object_name": "COSMOS 2251 DEB",
        "meta_object_id": "1993-036ATM",
        "meta_epoch": "2025-12-26T06:11:03.765408",
        "meta_mean_motion": 15.63732504,
        "meta_eccentricity": 0.0009884,
        "meta_inclination": 74.2061,
        "meta_ra_of_asc_node": 293.8322,
        "meta_arg_of_pericenter": 140.9264,
        "meta_mean_anomaly": 219.2673,
        "meta_ephemeris_type": 0,
        "meta_classification_type": "U",
        "meta_norad_cat_id": 35839,
        "meta_element_set_no": 999,
        "meta_rev_at_epoch": 88778,
        "meta_bstar": 0.0063044,
        "meta_mean_motion_dot": 0.0063746,
        "meta_mean_motion_ddot": 0,
        "tle_line1": "1 35839U 93036ATM 25360.25768247  .00637460  00000+0  63044-2 0  9990",
        "tle_line2": "2 35839  74.2061 293.8322 0009884 140.9264 219.2673 15.63732504887788"
      },
      "geometry": {
        "type": "Point",
        "coordinates": [
          -71.71796472540113,
          -7.05391496294457
        ]
      }
    },
    {
      "type": "Feature",
      "properties": {
        "norad_id": 35840,
        "name": "COSMOS 2251 DEB",
        "group": "cosmos-2251-debris",
        "lat": 71.99349028386577,
        "lon": -167.37107643492072,
        "alt_km": 707.9716388456482,
        "timestamp": "2025-12-27T20:30:59.676730+00:00",
        "meta_object_name": "COSMOS 2251 DEB",
        "meta_object_id": "1993-036ATN",
        "meta_epoch": "2025-12-27T01:46:44.685120",
        "meta_mean_motion": 14.37961362,
        "meta_eccentricity": 0.01159443,
        "meta_inclination": 73.9309,
        "meta_ra_of_asc_node": 131.6067,
        "meta_arg_of_pericenter": 29.9722,
        "meta_mean_anomaly": 330.8,
        "meta_ephemeris_type": 0,
        "meta_classification_type": "U",
        "meta_norad_cat_id": 35840,
        "meta_element_set_no": 999,
        "meta_rev_at_epoch": 85497,
        "meta_bstar": 0.0017351458,
        "meta_mean_motion_dot": 5.646e-05,
        "meta_mean_motion_ddot": 0,
        "tle_line1": "1 35840U 93036ATN 25361.07412830  .00005646  00000+0  17351-2 0  9992",
        "tle_line2": "2 35840  73.9309 131.6067 0115944  29.9722 330.8000 14.37961362854971"
      },
      "geometry": {
        "type": "Point",
        "coordinates": [
          -167.37107643492072,
          71.99349028386577
        ]
      }
    },
    {
      "type": "Feature",
      "properties": {
        "norad_id": 35883,
        "name": "COSMOS 2251 DEB",
        "group": "cosmos-2251-debris",
        "lat": 48.64795072928328,
        "lon": 60.587099108052094,
        "alt_km": 744.3274149776189,
        "timestamp": "2025-12-27T20:30:59.676740+00:00",
        "meta_object_name": "COSMOS 2251 DEB",
        "meta_object_id": "1993-036ATW",
        "meta_epoch": "2025-12-26T09:36:44.445024",
        "meta_mean_motion": 14.50635695,
        "meta_eccentricity": 0.0082804,
        "meta_inclination": 74.022,
        "meta_ra_of_asc_node": 44.3242,
        "meta_arg_of_pericenter": 170.6142,
        "meta_mean_anomaly": 209.7345,
        "meta_ephemeris_type": 0,
        "meta_classification_type": "U",
        "meta_norad_cat_id": 35883,
        "meta_element_set_no": 999,
        "meta_rev_at_epoch": 62584,
        "meta_bstar": 0.0002311,
        "meta_mean_motion_dot": 9.18e-06,
        "meta_mean_motion_ddot": 0,
        "tle_line1": "1 35883U 93036ATW 25360.40051441  .00000918  00000+0  23110-3 0  9990",
        "tle_line2": "2 35883  74.0220  44.3242 0082804 170.6142 209.7345 14.50635695625845"
      },
      "geometry": {
        "type": "Point",
        "coordinates": [
          60.587099108052094,
          48.64795072928328
        ]
      }
    },
    {
      "type": "Feature",
      "properties": {
        "norad_id": 35884,
        "name": "COSMOS 2251 DEB",
        "group": "cosmos-2251-debris",
        "lat": -37.609612962951495,
        "lon": 141.41974284517562,
        "alt_km": 859.1187374235014,
        "timestamp": "2025-12-27T20:30:59.676750+00:00",
        "meta_object_name": "COSMOS 2251 DEB",
        "meta_object_id": "1993-036ATX",
        "meta_epoch": "2025-12-23T04:21:24.693984",
        "meta_mean_motion": 14.25720371,
        "meta_eccentricity": 0.01085787,
        "meta_inclination": 73.9917,
        "meta_ra_of_asc_node": 317.1007,
        "meta_arg_of_pericenter": 101.1734,
        "meta_mean_anomaly": 260.1642,
        "meta_ephemeris_type": 0,
        "meta_classification_type": "U",
        "meta_norad_cat_id": 35884,
        "meta_element_set_no": 999,
        "meta_rev_at_epoch": 22506,
        "meta_bstar": 0.0013065465,
        "meta_mean_motion_dot": 3.275e-05,
        "meta_mean_motion_ddot": 0,
        "tle_line1": "1 35884U 93036ATX 25357.18153581  .00003275  00000+0  13065-2 0  9996",
        "tle_line2": "2 35884  73.9917 317.1007 0108578 101.1734 260.1642 14.25720371225069"
      },
      "geometry": {
        "type": "Point",
        "coordinates": [
          141.41974284517562,
          -37.609612962951495
        ]
      }
    },
    {
      "type": "Feature",
      "properties": {
        "norad_id": 35885,
        "name": "COSMOS 2251 DEB",
        "group": "cosmos-2251-debris",
        "lat": -63.52261175346541,
        "lon": -128.13282209753427,
        "alt_km": 763.1221197294435,
        "timestamp": "2025-12-27T20:30:59.676760+00:00",
        "meta_object_name": "COSMOS 2251 DEB",
        "meta_object_id": "1993-036ATY",
        "meta_epoch": "2025-12-26T11:25:48.817344",
        "meta_mean_motion": 14.37545271,
        "meta_eccentricity": 0.0023879,
        "meta_inclination": 74.0284,
        "meta_ra_of_asc_node": 269.5032,
        "meta_arg_of_pericenter": 347.1364,
        "meta_mean_anomaly": 12.9178,
        "meta_ephemeris_type": 0,
        "meta_classification_type": "U",
        "meta_norad_cat_id": 35885,
        "meta_element_set_no": 999,
        "meta_rev_at_epoch": 65213,
        "meta_bstar": 0.00029496,
        "meta_mean_motion_dot": 8.61e-06,
        "meta_mean_motion_ddot": 0,
        "tle_line1": "1 35885U 93036ATY 25360.47625946  .00000861  00000+0  29496-3 0  9996",
        "tle_line2": "2 35885  74.0284 269.5032 0023879 347.1364  12.9178 14.37545271652134"
      },
      "geometry": {
        "type": "Point",
        "coordinates": [
          -128.13282209753427,
          -63.52261175346541
        ]
      }
    },
    {
      "type": "Feature",
      "properties": {
        "norad_id": 35888,
        "name": "COSMOS 2251 DEB",
        "group": "cosmos-2251-debris",
        "lat": -59.28320894924771,
        "lon": -60.91069250922463,
        "alt_km": 736.9019789226095,
        "timestamp": "2025-12-27T20:30:59.676770+00:00",
        "meta_object_name": "COSMOS 2251 DEB",
        "meta_object_id": "1993-036AUB",
        "meta_epoch": "2025-12-24T15:25:47.112960",
        "meta_mean_motion": 14.58358709,
        "meta_eccentricity": 0.00479961,
        "meta_inclination": 74.034,
        "meta_ra_of_asc_node": 334.0069,
        "meta_arg_of_pericenter": 102.564,
        "meta_mean_anomaly": 258.0899,
        "meta_ephemeris_type": 0,
        "meta_classification_type": "U",
        "meta_norad_cat_id": 35888,
        "meta_element_set_no": 999,
        "meta_rev_at_epoch": 86447,
        "meta_bstar": 0.00043220593,
        "meta_mean_motion_dot": 2.004e-05,
        "meta_mean_motion_ddot": 0,
        "tle_line1": "1 35888U 93036AUB 25358.64290640  .00002004  00000+0  43221-3 0  9997",
        "tle_line2": "2 35888  74.0340 334.0069 0047996 102.5640 258.0899 14.58358709864470"
      },
      "geometry": {
        "type": "Point",
        "coordinates": [
          -60.91069250922463,
          -59.28320894924771
        ]
      }
    },
    {
      "type": "Feature",
      "properties": {
        "norad_id": 35890,
        "name": "COSMOS 2251 DEB",
        "group": "cosmos-2251-debris",
        "lat": -58.85228353920013,
        "lon": -174.6744921473633,
        "alt_km": 677.4795420711671,
        "timestamp": "2025-12-27T20:30:59.676780+00:00",
        "meta_object_name": "COSMOS 2251 DEB",
        "meta_object_id": "1993-036AUD",
        "meta_epoch": "2025-12-21T00:05:00.914784",
        "meta_mean_motion": 14.57585084,
        "meta_eccentricity": 0.00541447,
        "meta_inclination": 73.9362,
        "meta_ra_of_asc_node": 226.8978,
        "meta_arg_of_pericenter": 350.2956,
        "meta_mean_anomaly": 9.7156,
        "meta_ephemeris_type": 0,
        "meta_classification_type": "U",
        "meta_norad_cat_id": 35890,
        "meta_element_set_no": 999,
        "meta_rev_at_epoch": 65271,
        "meta_bstar": 0.0010880234,
        "meta_mean_motion_dot": 5.027e-05,
        "meta_mean_motion_ddot": 0,
        "tle_line1": "1 35890U 93036AUD 25355.00348281  .00005027  00000+0  10880-2 0  9994",
        "tle_line2": "2 35890  73.9362 226.8978 0054144 350.2956   9.7156 14.57585084652713"
      },
      "geometry": {
        "type": "Point",
        "coordinates": [
          -174.6744921473633,
          -58.85228353920013
        ]
      }
    }
  ]
}